IRIDIUM 155             
1 43573U 18061E   23011.83594786  .00000292  00000+0  97376-4 0  9993
2 43573  86.3969 220.0167 0002199  94.6475 265.4971 14.34217754233852
IRIDIUM 154             
1 43574U 18061F   23011.81692164  .00000304  00000+0  10144-3 0  9992
2 43574  86.3973 220.0975 0001726  87.6480 272.4914 14.34219195233900
IRIDIUM 163             
1 43575U 18061G   23011.86766286  .00000332  00000+0  11138-3 0  9990
2 43575  86.3970 220.0304 0002079  80.2484 279.8946 14.34215323233881
IRIDIUM 156             
1 43576U 18061H   23011.84229095  .00000335  00000+0  11255-3 0  9994
2 43576  86.3970 220.0467 0002303  84.6682 275.4776 14.34217128233877
IRIDIUM 164             
1 43577U 18061J   23011.54419665  .00000336  00000+0  11302-3 0  9990
2 43577  86.3972 220.1923 0001815  83.7418 276.3985 14.34220251233875
IRIDIUM 159             
1 43578U 18061K   23012.07061957  .00000074  00000+0  19236-4 0  9991
2 43578  86.3971 219.9356 0001833  87.2335 272.9071 14.34212184233917
IRIDIUM 180             
1 43922U 19002A   23011.86082000  .00000443  00000+0  15108-3 0  9991
2 43922  86.4001 156.9960 0001627  86.1675 273.9707 14.34221532209492
IRIDIUM 176             
1 43923U 19002B   23012.12582402  .00001589  00000+0  24801-3 0  9995
2 43923  86.6136 156.9263 0002267  91.0786 269.0691 14.72260215215037
IRIDIUM 168             
1 43924U 19002C   23011.43586623  .00000428  00000+0  14589-3 0  9991
2 43924  86.4003 157.2152 0001772  93.7296 266.4102 14.34218284209415
IRIDIUM 173             
1 43925U 19002D   23011.84179387  .00000443  00000+0  15113-3 0  9993
2 43925  86.4000 156.9858 0001781  91.4268 268.7131 14.34219129209467
IRIDIUM 169             
1 43926U 19002E   23011.20497513  .00000134  00000+0  37179-4 0  9992
2 43926  86.4249 188.8044 0005488 131.9172 228.2495 14.38614747210089
IRIDIUM 172             
1 43927U 19002F   23011.13776158  .00000439  00000+0  14971-3 0  9992
2 43927  86.4000 157.2840 0001710  88.9698 271.1694 14.34219754209369
IRIDIUM 175             
1 43928U 19002G   23011.77981959  .00001510  00000+0  23559-3 0  9993
2 43928  86.6140 156.9073 0002232  93.3600 266.7873 14.72259389214976
IRIDIUM 171             
1 43929U 19002H   23012.09549855  .00000410  00000+0  13930-3 0  9995
2 43929  86.4013 157.0514 0001731  94.4177 265.7217 14.34218401209490
IRIDIUM 170             
1 43930U 19002J   23011.65622853  .00001519  00000+0  23688-3 0  9990
2 43930  86.6136 157.1274 0002156  91.2555 268.8909 14.72261671214971
IRIDIUM 167             
1 43931U 19002K   23011.67054048  .00000423  00000+0  14412-3 0  9996
2 43931  86.4002 157.0729 0001652  88.3748 271.7637 14.34220862209438
